IRIDIUM 150             
1 43257U 18030J   25113.69980729  .00000078  00000+0  20956-4 0  9995
2 43257  86.3919 105.8514 0002290  96.9680 263.1776 14.34217289370030
IRIDIUM 143             
1 43258U 18030K   25113.05286229  .00000197  00000+0  63244-4 0  9999
2 43258  86.3921 106.1987 0002352 101.4130 258.7330 14.34217658369879
IRIDIUM 161             
1 43478U 18047C   25113.64808318  .00000623  00000+0  17914-3 0  9991
2 43478  86.4455 263.7378 0002118  88.1424 272.0019 14.43270999364625
IRIDIUM 152             
1 43479U 18047D   25113.65349509  .00000589  00000+0  20329-3 0  9990
2 43479  86.3927 263.5957 0002060  91.6487 268.4944 14.34220510362352
IRIDIUM 147             
1 43480U 18047E   25112.96215742  .00000376  00000+0  12725-3 0  9991
2 43480  86.3930 263.8828 0002335  89.5618 270.5846 14.34216250362255
IRIDIUM 110             
1 43481U 18047F   25113.66618028 -.00000091  00000+0 -39475-4 0  9992
2 43481  86.3930 263.6694 0001925  80.4618 279.6796 14.34214376362340
IRIDIUM 162             
1 43482U 18047G   25113.71111776  .00000752  00000+0  21759-3 0  9994
2 43482  86.4451 263.6069 0001858  87.3585 272.7828 14.43281787364623
IRIDIUM 160             
1 43569U 18061A   25113.89109365  .00000100  00000+0  28663-4 0  9995
2 43569  86.3991 231.9460 0002223  89.0748 271.0703 14.34217999353274
